[{"OBJECT_NAME":"ONEWEB-0567","OBJECT_ID":"2023-004H","EPOCH":"2026-03-02T20:01:37.858944","MEAN_MOTION":13.18685492,"ECCENTRICITY":0.00022035,"INCLINATION":87.924,"RA_OF_ASC_NODE":356.5976,"ARG_OF_PERICENTER":84.4851,"MEAN_ANOMALY":275.6532,"EPHEMERIS_TYPE":0,"CLASSIFICATION_TYPE":"U","NORAD_CAT_ID":55147,"ELEMENT_SET_NO":999,"REV_AT_EPOCH":15568,"BSTAR":6.312446e-6,"MEAN_MOTION_DOT":1.5e-7,"MEAN_MOTION_DDOT":0},{"OBJECT_NAME":"ONEWEB-0569","OBJECT_ID":"2023-004J","EPOCH":"2026-03-02T19:35:51.119232","MEAN_MOTION":13.13470471,"ECCENTRICITY":0.00023793,"INCLINATION":87.9052,"RA_OF_ASC_NODE":341.367,"ARG_OF_PERICENTER":99.4086,"MEAN_ANOMALY":260.7312,"EPHEMERIS_TYPE":0,"CLASSIFICATION_TYPE":"U","NORAD_CAT_ID":55148,"ELEMENT_SET_NO":999,"REV_AT_EPOCH":15621,"BSTAR":-0.00018208242,"MEAN_MOTION_DOT":-5.4e-7,"MEAN_MOTION_DDOT":0},{"OBJECT_NAME":"ONEWEB-0570","OBJECT_ID":"2023-004K","EPOCH":"2026-03-02T19:47:22.327872","MEAN_MOTION":13.18686971,"ECCENTRICITY":0.0002174,"INCLINATION":87.924,"RA_OF_ASC_NODE":356.5982,"ARG_OF_PERICENTER":69.2851,"MEAN_ANOMALY":290.8514,"EPHEMERIS_TYPE":0,"CLASSIFICATION_TYPE":"U","NORAD_CAT_ID":55149,"ELEMENT_SET_NO":999,"REV_AT_EPOCH":15567,"BSTAR":6.4388718e-5,"MEAN_MOTION_DOT":3.8e-7,"MEAN_MOTION_DDOT":0},{"OBJECT_NAME":"ONEWEB-0571","OBJECT_ID":"2023-004L","EPOCH":"2026-03-02T19:37:51.259296","MEAN_MOTION":13.18694595,"ECCENTRICITY":0.00030081,"INCLINATION":87.9243,"RA_OF_ASC_NODE":356.5982,"ARG_OF_PERICENTER":88.6806,"MEAN_ANOMALY":271.4671,"EPHEMERIS_TYPE":0,"CLASSIFICATION_TYPE":"U","NORAD_CAT_ID":55150,"ELEMENT_SET_NO":999,"REV_AT_EPOCH":15568,"BSTAR":0.0019642353,"MEAN_MOTION_DOT":7.87e-6,"MEAN_MOTION_DDOT":0},{"OBJECT_NAME":"ONEWEB-0572","OBJECT_ID":"2023-004M","EPOCH":"2026-03-02T21:43:07.599648","MEAN_MOTION":13.17650167,"ECCENTRICITY":0.00020795,"INCLINATION":87.9138,"RA_OF_ASC_NODE":26.973,"ARG_OF_PERICENTER":81.7354,"MEAN_ANOMALY":278.4014,"EPHEMERIS_TYPE":0,"CLASSIFICATION_TYPE":"U","NORAD_CAT_ID":55151,"ELEMENT_SET_NO":999,"REV_AT_EPOCH":15348,"BSTAR":3.1147183e-5,"MEAN_MOTION_DOT":2.5e-7,"MEAN_MOTION_DDOT":0},{"OBJECT_NAME":"ONEWEB-0573","OBJECT_ID":"2023-004N","EPOCH":"2026-03-02T19:28:22.933056","MEAN_MOTION":13.18685695,"ECCENTRICITY":0.00026229,"INCLINATION":87.9238,"RA_OF_ASC_NODE":356.6018,"ARG_OF_PERICENTER":76.2079,"MEAN_ANOMALY":283.9345,"EPHEMERIS_TYPE":0,"CLASSIFICATION_TYPE":"U","NORAD_CAT_ID":55152,"ELEMENT_SET_NO":999,"REV_AT_EPOCH":15567,"BSTAR":-0.0001144619,"MEAN_MOTION_DOT":-3.2e-7,"MEAN_MOTION_DDOT":0},{"OBJECT_NAME":"ONEWEB-0588","OBJECT_ID":"2023-004P","EPOCH":"2026-03-02T19:18:51.065280","MEAN_MOTION":13.18684424,"ECCENTRICITY":0.0002168,"INCLINATION":87.9238,"RA_OF_ASC_NODE":356.6034,"ARG_OF_PERICENTER":71.9447,"MEAN_ANOMALY":288.1921,"EPHEMERIS_TYPE":0,"CLASSIFICATION_TYPE":"U","NORAD_CAT_ID":55153,"ELEMENT_SET_NO":999,"REV_AT_EPOCH":15567,"BSTAR":-0.00010351321,"MEAN_MOTION_DOT":-2.8e-7,"MEAN_MOTION_DDOT":0},{"OBJECT_NAME":"ONEWEB-0598","OBJECT_ID":"2023-004Q","EPOCH":"2026-03-02T22:55:24.877056","MEAN_MOTION":13.11414444,"ECCENTRICITY":0.00023423,"INCLINATION":87.8848,"RA_OF_ASC_NODE":42.196,"ARG_OF_PERICENTER":95.5249,"MEAN_ANOMALY":264.6146,"EPHEMERIS_TYPE":0,"CLASSIFICATION_TYPE":"U","NORAD_CAT_ID":55154,"ELEMENT_SET_NO":999,"REV_AT_EPOCH":15197,"BSTAR":-0.00070715037,"MEAN_MOTION_DOT":-2.38e-6,"MEAN_MOTION_DDOT":0},{"OBJECT_NAME":"ONEWEB-0599","OBJECT_ID":"2023-004R","EPOCH":"2026-03-02T22:36:35.225568","MEAN_MOTION":13.17647468,"ECCENTRICITY":0.00018531,"INCLINATION":87.9134,"RA_OF_ASC_NODE":26.9643,"ARG_OF_PERICENTER":89.117,"MEAN_ANOMALY":271.0174,"EPHEMERIS_TYPE":0,"CLASSIFICATION_TYPE":"U","NORAD_CAT_ID":55155,"ELEMENT_SET_NO":999,"REV_AT_EPOCH":15349,"BSTAR":-2.1036685e-5,"MEAN_MOTION_DOT":5.0e-8,"MEAN_MOTION_DDOT":0},{"OBJECT_NAME":"ONEWEB-0614","OBJECT_ID":"2023-004S","EPOCH":"2026-03-02T22:48:05.505408","MEAN_MOTION":13.11413766,"ECCENTRICITY":0.00018765,"INCLINATION":87.8847,"RA_OF_ASC_NODE":42.2053,"ARG_OF_PERICENTER":73.5442,"MEAN_ANOMALY":286.5892,"EPHEMERIS_TYPE":0,"CLASSIFICATION_TYPE":"U","NORAD_CAT_ID":55156,"ELEMENT_SET_NO":999,"REV_AT_EPOCH":15191,"BSTAR":-0.00020722244,"MEAN_MOTION_DOT":-6.1e-7,"MEAN_MOTION_DDOT":0},{"OBJECT_NAME":"ONEWEB-0616","OBJECT_ID":"2023-004T","EPOCH":"2026-03-02T21:48:00.297792","MEAN_MOTION":13.17648774,"ECCENTRICITY":0.0001511,"INCLINATION":87.9148,"RA_OF_ASC_NODE":26.971,"ARG_OF_PERICENTER":113.3257,"MEAN_ANOMALY":246.8033,"EPHEMERIS_TYPE":0,"CLASSIFICATION_TYPE":"U","NORAD_CAT_ID":55157,"ELEMENT_SET_NO":999,"REV_AT_EPOCH":15370,"BSTAR":-0.00011866548,"MEAN_MOTION_DOT":-3.3e-7,"MEAN_MOTION_DDOT":0},{"OBJECT_NAME":"ONEWEB-0617","OBJECT_ID":"2023-004U","EPOCH":"2026-03-02T22:31:00.792768","MEAN_MOTION":13.11414402,"ECCENTRICITY":0.00020868,"INCLINATION":87.8854,"RA_OF_ASC_NODE":42.1906,"ARG_OF_PERICENTER":75.7191,"MEAN_ANOMALY":284.4168,"EPHEMERIS_TYPE":0,"CLASSIFICATION_TYPE":"U","NORAD_CAT_ID":55158,"ELEMENT_SET_NO":999,"REV_AT_EPOCH":15193,"BSTAR":0.0011529947,"MEAN_MOTION_DOT":4.21e-6,"MEAN_MOTION_DDOT":0},{"OBJECT_NAME":"ONEWEB-0618","OBJECT_ID":"2023-004V","EPOCH":"2026-03-02T22:39:48.899808","MEAN_MOTION":15.11850872,"ECCENTRICITY":0.00117891,"INCLINATION":86.9054,"RA_OF_ASC_NODE":220.7133,"ARG_OF_PERICENTER":337.9308,"MEAN_ANOMALY":22.1422,"EPHEMERIS_TYPE":0,"CLASSIFICATION_TYPE":"U","NORAD_CAT_ID":55159,"ELEMENT_SET_NO":999,"REV_AT_EPOCH":16620,"BSTAR":0.00040810691,"MEAN_MOTION_DOT":7.017e-5,"MEAN_MOTION_DDOT":0},{"OBJECT_NAME":"ONEWEB-0619","OBJECT_ID":"2023-004W","EPOCH":"2026-03-02T22:34:10.799328","MEAN_MOTION":13.17648052,"ECCENTRICITY":0.00014826,"INCLINATION":87.9144,"RA_OF_ASC_NODE":26.9379,"ARG_OF_PERICENTER":74.7581,"MEAN_ANOMALY":285.3715,"EPHEMERIS_TYPE":0,"CLASSIFICATION_TYPE":"U","NORAD_CAT_ID":55160,"ELEMENT_SET_NO":999,"REV_AT_EPOCH":15360,"BSTAR":-1.3342652e-5,"MEAN_MOTION_DOT":8.0e-8,"MEAN_MOTION_DDOT":0},{"OBJECT_NAME":"ONEWEB-0620","OBJECT_ID":"2023-004X","EPOCH":"2026-03-02T22:23:41.953344","MEAN_MOTION":13.1141557,"ECCENTRICITY":0.00021449,"INCLINATION":87.8848,"RA_OF_ASC_NODE":42.2082,"ARG_OF_PERICENTER":84.2493,"MEAN_ANOMALY":275.888,"EPHEMERIS_TYPE":0,"CLASSIFICATION_TYPE":"U","NORAD_CAT_ID":55161,"ELEMENT_SET_NO":999,"REV_AT_EPOCH":15190,"BSTAR":0.001494961,"MEAN_MOTION_DOT":5.43e-6,"MEAN_MOTION_DDOT":0},{"OBJECT_NAME":"ONEWEB-0621","OBJECT_ID":"2023-004Y","EPOCH":"2026-03-02T23:02:45.026304","MEAN_MOTION":13.11415461,"ECCENTRICITY":0.00017755,"INCLINATION":87.8859,"RA_OF_ASC_NODE":42.1817,"ARG_OF_PERICENTER":77.307,"MEAN_ANOMALY":282.8257,"EPHEMERIS_TYPE":0,"CLASSIFICATION_TYPE":"U","NORAD_CAT_ID":55162,"ELEMENT_SET_NO":999,"REV_AT_EPOCH":15188,"BSTAR":-0.0011931282,"MEAN_MOTION_DOT":-4.1e-6,"MEAN_MOTION_DDOT":0},{"OBJECT_NAME":"ONEWEB-0622","OBJECT_ID":"2023-004Z","EPOCH":"2026-03-02T23:10:03.783648","MEAN_MOTION":13.11416877,"ECCENTRICITY":0.00022893,"INCLINATION":87.8852,"RA_OF_ASC_NODE":42.1831,"ARG_OF_PERICENTER":67.5654,"MEAN_ANOMALY":292.5717,"EPHEMERIS_TYPE":0,"CLASSIFICATION_TYPE":"U","NORAD_CAT_ID":55163,"ELEMENT_SET_NO":999,"REV_AT_EPOCH":15187,"BSTAR":-0.0014247349,"MEAN_MOTION_DOT":-4.92e-6,"MEAN_MOTION_DDOT":0},{"OBJECT_NAME":"ONEWEB-0623","OBJECT_ID":"2023-004AA","EPOCH":"2026-03-02T22:26:53.477088","MEAN_MOTION":13.17648103,"ECCENTRICITY":0.00018485,"INCLINATION":87.9138,"RA_OF_ASC_NODE":26.9811,"ARG_OF_PERICENTER":58.0564,"MEAN_ANOMALY":302.0747,"EPHEMERIS_TYPE":0,"CLASSIFICATION_TYPE":"U","NORAD_CAT_ID":55164,"ELEMENT_SET_NO":999,"REV_AT_EPOCH":15359,"BSTAR":-0.00015709761,"MEAN_MOTION_DOT":-4.8e-7,"MEAN_MOTION_DDOT":0},{"OBJECT_NAME":"ONEWEB-0624","OBJECT_ID":"2023-004AB","EPOCH":"2026-03-02T21:11:44.279232","MEAN_MOTION":13.12923064,"ECCENTRICITY":0.00018155,"INCLINATION":87.8992,"RA_OF_ASC_NODE":11.7028,"ARG_OF_PERICENTER":73.5545,"MEAN_ANOMALY":286.5783,"EPHEMERIS_TYPE":0,"CLASSIFICATION_TYPE":"U","NORAD_CAT_ID":55165,"ELEMENT_SET_NO":999,"REV_AT_EPOCH":15412,"BSTAR":-0.0010684754,"MEAN_MOTION_DOT":-3.74e-6,"MEAN_MOTION_DDOT":0},{"OBJECT_NAME":"ONEWEB-0625","OBJECT_ID":"2023-004AC","EPOCH":"2026-03-02T22:12:18.765216","MEAN_MOTION":13.17648702,"ECCENTRICITY":0.00017281,"INCLINATION":87.9138,"RA_OF_ASC_NODE":26.9768,"ARG_OF_PERICENTER":86.5906,"MEAN_ANOMALY":273.5423,"EPHEMERIS_TYPE":0,"CLASSIFICATION_TYPE":"U","NORAD_CAT_ID":55166,"ELEMENT_SET_NO":999,"REV_AT_EPOCH":15358,"BSTAR":-4.591724e-5,"MEAN_MOTION_DOT":-5.0e-8,"MEAN_MOTION_DDOT":0},{"OBJECT_NAME":"ONEWEB-0626","OBJECT_ID":"2023-004AD","EPOCH":"2026-03-02T21:57:44.129376","MEAN_MOTION":13.17647868,"ECCENTRICITY":0.00023265,"INCLINATION":87.9138,"RA_OF_ASC_NODE":26.9794,"ARG_OF_PERICENTER":87.5543,"MEAN_ANOMALY":272.5855,"EPHEMERIS_TYPE":0,"CLASSIFICATION_TYPE":"U","NORAD_CAT_ID":55167,"ELEMENT_SET_NO":999,"REV_AT_EPOCH":15358,"BSTAR":-9.631771e-5,"MEAN_MOTION_DOT":-2.5e-7,"MEAN_MOTION_DDOT":0},{"OBJECT_NAME":"ONEWEB-0627","OBJECT_ID":"2023-004AE","EPOCH":"2026-03-02T21:40:43.718592","MEAN_MOTION":13.17650423,"ECCENTRICITY":0.00018302,"INCLINATION":87.9138,"RA_OF_ASC_NODE":26.9816,"ARG_OF_PERICENTER":66.8229,"MEAN_ANOMALY":293.3095,"EPHEMERIS_TYPE":0,"CLASSIFICATION_TYPE":"U","NORAD_CAT_ID":55168,"ELEMENT_SET_NO":999,"REV_AT_EPOCH":15358,"BSTAR":4.0080869e-5,"MEAN_MOTION_DOT":2.8e-7,"MEAN_MOTION_DDOT":0},{"OBJECT_NAME":"ONEWEB-0628","OBJECT_ID":"2023-004AF","EPOCH":"2026-03-02T21:38:27.424320","MEAN_MOTION":13.12442642,"ECCENTRICITY":0.00016913,"INCLINATION":87.8995,"RA_OF_ASC_NODE":11.7463,"ARG_OF_PERICENTER":57.2074,"MEAN_ANOMALY":302.9217,"EPHEMERIS_TYPE":0,"CLASSIFICATION_TYPE":"U","NORAD_CAT_ID":55169,"ELEMENT_SET_NO":999,"REV_AT_EPOCH":15409,"BSTAR":-0.00031289827,"MEAN_MOTION_DOT":-1.0e-6,"MEAN_MOTION_DDOT":0}]
